NORAD_CAT_ID,OBJECT_NAME,OBJECT_TYPE,EPOCH,MEAN_MOTION,ECCENTRICITY,INCLINATION,RA_OF_ASC_NODE,ARG_OF_PERICENTER,MEAN_ANOMALY,BSTAR,MEAN_MOTION_DOT,MEAN_MOTION_DDOT,TLE_LINE0,TLE_LINE1,TLE_LINE2,SEMIMAJOR_AXIS,PERIOD,APOGEE,PERIGEE,DECAYED
52094.0,STARLINK-3714,PAYLOAD,2022-05-21 22:00:00,15.12083808,0.0001512,53.2174,199.0919,61.3865,118.9285,-0.044496,-0.00721114,0.0,0 STARLINK-3714,1 52094U 22029G   22141.91667824 -.00721114  00000-0 -44496-1 0  9994,2 52094  53.2174 199.0919 0001512  61.3865 118.9285 15.12083808  1304,6907.983,95.233,530.893,528.804,0.0
52094.0,STARLINK-3714,PAYLOAD,2022-05-22 06:00:00,15.11573907,0.0001636,53.2175,197.58900000000003,56.2254,139.273,-0.04516,-0.00721497,0.0,0 STARLINK-3714,1 52094U 22029G   22142.25001157 -.00721497  00000-0 -45160-1 0  9996,2 52094  53.2175 197.5890 0001636  56.2254 139.2730 15.11573907 11190,6909.5369999999975,95.265,532.5319999999998,530.271,0.0
52094.0,STARLINK-3714,PAYLOAD,2022-05-22 14:00:01,15.11060678,0.0001545,53.2174,196.0884,62.7316,147.3378,-0.045435,-0.00715964,0.0,0 STARLINK-3714,1 52094U 22029G   22142.58334491 -.00715964  00000-0 -45435-1 0  9999,2 52094  53.2174 196.0884 0001545  62.7316 147.3378 15.11060678  1302,6911.101,95.297,534.034,531.898,0.0
52094.0,STARLINK-3714,PAYLOAD,2022-05-22 22:00:01,15.1055353,0.0001514,53.2175,194.5857,62.4541,161.636,-0.046384,-0.00720356,0.0,0 STARLINK-3714,1 52094U 22029G   22142.91668981 -.00720356  00000-0 -46384-1 0  9995,2 52094  53.2175 194.5857 0001514  62.4541 161.6360 15.10553530  1302,6912.648,95.329,535.559,533.466,0.0
52094.0,STARLINK-3714,PAYLOAD,2022-05-23 14:00:01,15.09527363,0.0001506,53.2173,191.5893,63.3452,186.7601,-0.046897,-0.00708744,0.0,0 STARLINK-3714,1 52094U 22029G   22143.58334491 -.00708744  00000-0 -46897-1 0  9991,2 52094  53.2173 191.5893 0001506  63.3452 186.7601 15.09527363 11398,6915.78,95.394,538.687,536.604,0.0
52094.0,STARLINK-3714,PAYLOAD,2022-05-23 20:00:01,15.09009669,0.0001515,53.2174,190.4648,55.0939,114.1804,-0.016349,-0.00252654,0.0,0 STARLINK-3714,1 52094U 22029G   22143.83334491 -.00252654  00000-0 -16349-1 0  9992,2 52094  53.2174 190.4648 0001515  55.0939 114.1804 15.09009669 11432,6917.361999999999,95.427,540.275,538.179,0.0
52094.0,STARLINK-3714,PAYLOAD,2022-05-23 22:00:01,15.08886793,0.0001555,53.2175,190.0901,59.1974,203.1069,-0.0049672,-0.0007858,0.0,0 STARLINK-3714,1 52094U 22029G   22143.91668981 -.00078580  00000-0 -49672-2 0  9995,2 52094  53.2175 190.0901 0001555  59.1974 203.1069 15.08886793  1306,6917.736999999999,95.435,540.678,538.5269999999998,0.0
52094.0,STARLINK-3714,PAYLOAD,2022-05-24 04:00:00,15.08838058,0.0001631,53.2176,188.9678,53.61,127.3492,-8.6586e-05,-1.666e-05,0.0,0 STARLINK-3714,1 52094U 22029G   22144.16667824 -.00001666  00000-0 -86586-4 0  9996,2 52094  53.2176 188.9678 0001631  53.6100 127.3492 15.08838058 11487,6917.886,95.438,540.88,538.623,0.0
52094.0,STARLINK-3714,PAYLOAD,2022-05-24 11:09:22,15.0974782,0.0001182,53.21100000000001,187.6301,78.3852,281.7273,-0.0099095,-0.00158446,0.0,0 STARLINK-3714,1 52094U 22029G   22144.46483812 -.00158446  00000-0 -99095-2 0  9998,2 52094  53.2110 187.6301 0001182  78.3852 281.7273 15.09747820 11538,6915.107,95.38,537.789,536.155,0.0
52094.0,STARLINK-3714,PAYLOAD,2022-05-24 14:00:01,15.08830033,0.0001862,53.2143,187.0937,57.6845,227.81,0.0031174,0.00049662,0.0,0 STARLINK-3714,1 52094U 22029G   22144.58334491  .00049662  00000-0  31174-2 0  9990,2 52094  53.2143 187.0937 0001862  57.6845 227.8100 15.08830033 11549,6917.911,95.438,541.064,538.488,0.0
52094.0,STARLINK-3714,PAYLOAD,2022-05-24 22:00:00,15.08841528,0.0001663,53.2147,185.5955,62.9918,234.1124,-0.0012002,-0.00019339,0.0,0 STARLINK-3714,1 52094U 22029G   22144.91667824 -.00019339  00000-0 -12002-2 0  9995,2 52094  53.2147 185.5955 0001663  62.9918 234.1124 15.08841528 11598,6917.876,95.437,540.891,538.59,0.0
52094.0,STARLINK-3714,PAYLOAD,2022-05-25 14:00:01,15.08816254,0.0001748,53.2145,182.6044,56.1554,264.1245,0.0024812,0.00039396,0.0,0 STARLINK-3714,1 52094U 22029G   22145.58334491  .00039396  00000-0  24812-2 0  9995,2 52094  53.2145 182.6044 0001748  56.1554 264.1245 15.08816254  1301,6917.953,95.439,541.0269999999998,538.609,0.0
52094.0,STARLINK-3714,PAYLOAD,2022-05-25 20:00:01,15.0884395,0.0001633,53.2147,181.4806,61.5017,177.4679,-0.00054717,-8.987e-05,0.0,0 STARLINK-3714,1 52094U 22029G   22145.83334491 -.00008987  00000-0 -54717-3 0  9995,2 52094  53.2147 181.4806 0001633  61.5017 177.4679 15.08843950 11731,6917.868,95.437,540.863,538.604,0.0
52094.0,STARLINK-3714,PAYLOAD,2022-05-25 22:00:00,15.08820825,0.0001603,53.2146,181.1062,63.7263,268.1502,0.0025341,0.00040252,0.0,0 STARLINK-3714,1 52094U 22029G   22145.91667824  .00040252  00000-0  25341-2 0  9992,2 52094  53.2146 181.1062 0001603  63.7263 268.1502 15.08820825  1306,6917.939,95.439,540.913,538.695,0.0
52094.0,STARLINK-3714,PAYLOAD,2022-05-26 10:50:34,15.0884158,0.000171,53.2149,178.7036,58.6686,301.4473,3.112e-05,2.07e-06,0.0,0 STARLINK-3714,1 52094U 22029G   22146.45179360  .00000207  00000-0  31120-4 0  9995,2 52094  53.2149 178.7036 0001710  58.6686 301.4473 15.08841580 11831,6917.876,95.437,540.924,538.558,0.0
52094.0,STARLINK-3714,PAYLOAD,2022-05-26 12:00:00,15.08827422,0.0001766,53.2144,178.4894,57.6491,204.5242,0.0025493,0.00040504,0.0,0 STARLINK-3714,1 52094U 22029G   22146.50001157  .00040504  00000-0  25493-2 0  9997,2 52094  53.2144 178.4894 0001766  57.6491 204.5242 15.08827422 11835,6917.919,95.438,541.006,538.562,0.0
52094.0,STARLINK-3714,PAYLOAD,2022-05-26 22:00:00,15.08840117,0.0001531999999999,53.2141,176.6169,64.5053,302.1757,0.00080764,0.00012589,0.0,0 STARLINK-3714,1 52094U 22029G   22146.91667824  .00012589  00000-0  80764-3 0  9996,2 52094  53.2141 176.6169 0001532  64.5053 302.1757 15.08840117  1302,6917.88,95.438,540.805,538.685,0.0
52094.0,STARLINK-3714,PAYLOAD,2022-05-27 01:09:02,15.08840208,0.0001679,53.2154,176.0272,61.5172,298.5989,0.0001230999999999,1.672e-05,0.0,0 STARLINK-3714,1 52094U 22029G   22147.04794919  .00001672  00000-0  12310-3 0  9990,2 52094  53.2154 176.0272 0001679  61.5172 298.5989 15.08840208 11921,6917.88,95.438,540.906,538.5830000000002,0.0
52094.0,STARLINK-3714,PAYLOAD,2022-05-27 14:00:01,15.08818309,0.0001604,53.2151,173.6258,54.9733,334.8945,0.0012852,0.00020213,0.0,0 STARLINK-3714,1 52094U 22029G   22147.58334491  .00020213  00000-0  12852-2 0  9996,2 52094  53.2151 173.6258 0001604  54.9733 334.8945 15.08818309  1306,6917.946999999999,95.439,540.9209999999998,538.702,0.0
52094.0,STARLINK-3714,PAYLOAD,2022-05-27 22:00:01,15.08776664,0.0001526,53.2164,172.1303,65.4773,336.0425,0.010736,0.00174538,0.0,0 STARLINK-3714,1 52094U 22029G   22147.91668981  .00174538  00000-0  10736-1 0  9995,2 52094  53.2164 172.1303 0001526  65.4773 336.0425 15.08776664  1303,6918.074000000001,95.442,540.995,538.883,0.0
52094.0,STARLINK-3714,PAYLOAD,2022-05-28 04:00:00,15.08854259,0.0001531999999999,53.2153,171.00599999999997,64.6372,255.4989,-0.001086,-0.00017537,0.0,0 STARLINK-3714,1 52094U 22029G   22148.16667824 -.00017537  00000-0 -10860-2 0  9994,2 52094  53.2153 171.0060 0001532  64.6372 255.4989 15.08854259 12085,6917.837,95.437,540.762,538.6419999999998,0.0
52094.0,STARLINK-3714,PAYLOAD,2022-05-28 14:00:01,15.08833616,0.0001623,53.2146,169.1366,55.5724,9.0554,0.00096367,0.00015079,0.0,0 STARLINK-3714,1 52094U 22029G   22148.58334491  .00015079  00000-0  96367-3 0  9995,2 52094  53.2146 169.1366 0001623  55.5724   9.0554 15.08833616  1303,6917.9,95.438,540.888,538.6419999999998,0.0
52094.0,STARLINK-3714,PAYLOAD,2022-05-28 22:00:00,15.08821428,0.0001504,53.2145,167.6383,64.1619,12.0727,0.0028947,0.00046059,0.0,0 STARLINK-3714,1 52094U 22029G   22148.91667824  .00046059  00000-0  28947-2 0  9991,2 52094  53.2145 167.6383 0001504  64.1619  12.0727 15.08821428  1305,6917.937,95.439,540.8430000000002,538.762,0.0
52094.0,STARLINK-3714,PAYLOAD,2022-05-29 04:00:00,15.08861463,0.0001595999999999,53.2148,166.5168,63.6683,291.2492,-0.0016523,-0.00026504,0.0,0 STARLINK-3714,1 52094U 22029G   22149.16667824 -.00026504  00000-0 -16523-2 0  9991,2 52094  53.2148 166.5168 0001596  63.6683 291.2492 15.08861463 12230,6917.815,95.436,540.784,538.576,0.0
52094.0,STARLINK-3714,PAYLOAD,2022-05-29 14:00:01,15.08854636,0.0001655,53.2142,164.6471,54.3997,45.0217,-0.0015142,-0.00024315,0.0,0 STARLINK-3714,1 52094U 22029G   22149.58334491 -.00024315  00000-0 -15142-2 0  9992,2 52094  53.2142 164.6471 0001655  54.3997  45.0217 15.08854636  1301,6917.8359999999975,95.437,540.846,538.556,0.0
52094.0,STARLINK-3714,PAYLOAD,2022-05-29 18:19:51,15.08841003,0.0001652,53.217,163.8356,60.8404,299.2753,0.00012452,1.694e-05,0.0,0 STARLINK-3714,1 52094U 22029G   22149.76378924  .00001694  00000-0  12452-3 0  9996,2 52094  53.2170 163.8356 0001652  60.8404 299.2753 15.08841003 12334,6917.877,95.437,540.885,538.599,0.0
52094.0,STARLINK-3714,PAYLOAD,2022-05-29 22:00:00,15.08806266,0.0001475,53.2143,163.1488,61.2075,49.8295,0.0020971,0.00033214,0.0,0 STARLINK-3714,1 52094U 22029G   22149.91667824  .00033214  00000-0  20971-2 0  9990,2 52094  53.2143 163.1488 0001475  61.2075  49.8295 15.08806266  1302,6917.984,95.44,540.869,538.828,0.0
52094.0,STARLINK-3714,PAYLOAD,2022-05-30 04:00:00,15.08842378,0.0001578,53.2146,162.0275,60.1018,329.6049,-0.0018558,-0.00029704,0.0,0 STARLINK-3714,1 52094U 22029G   22150.16667824 -.00029704  00000-0 -18558-2 0  9998,2 52094  53.2146 162.0275 0001578  60.1018 329.6049 15.08842378 12397,6917.873000000001,95.437,540.83,538.646,0.0
52094.0,STARLINK-3714,PAYLOAD,2022-05-30 14:00:01,15.08829883,0.0001672,53.2144,160.1576,52.8248,81.3569,-2.2775e-05,-6.5e-06,0.0,0 STARLINK-3714,1 52094U 22029G   22150.58334491 -.00000650  00000-0 -22775-4 0  9992,2 52094  53.2144 160.1576 0001672  52.8248  81.3569 15.08829883  1300,6917.911,95.438,540.933,538.62,0.0
